OPS 6582 (TRANSIT 5B-5) 
1 00965U 64083D   26027.47760778  .00000103  00000+0  13148-3 0  9997
2 00965  90.0679 201.9215 0040562 331.7414  81.1035 13.56996969 24538
LES-1                   
1 01002U 65008C   26027.23586476  .00000008  00000+0  12392-4 0  9998
2 01002  32.1487  18.6165 0015513 122.9155 237.2836  9.88354699202249
SOLRAD 7B               
1 01291U 65016D   26027.49773072  .00000076  00000+0  94882-4 0  9994
2 01291  70.0786 175.3687 0023354 301.6021  58.2806 13.94955720 97088
SECOR 4 (EGRS 4)        
1 01315U 65027B   26027.47179234 -.00000021  00000+0 -10357-3 0  9997
2 01315  90.2462  12.3590 0030326 204.9913 273.6310 12.92663771868746
TIROS 10                
1 01430U 65051A   26027.35412517  .00000453  00000+0  15014-3 0  9995
2 01430  98.4863 147.4567 0056053 141.0916 219.4328 14.41564998175624
ALOUETTE 2              
1 01804U 65098A   26027.41915026  .00000585  00000+0  18688-3 0  9997
2 01804  79.7981  36.4017 1330997 157.9262 208.5119 12.28194941661999
OV3-3                   
1 02389U 66070A   26027.46614384  .00021032  00000+0  95367-3 0  9994
2 02389  81.3252  94.8269 1028867 161.8459 202.2479 13.41473619580074
SECOR 7 (EGRS 7)        
1 02411U 66077B   26025.66423696 -.00000018  00000+0 -95037-2 0  9997
2 02411  90.3360 275.7857 0011246 199.0276 161.0156  8.59615454865130
ERS 15                  
1 02412U 66077C   26026.62289844  .00000002  00000+0  00000+0 0  9994
2 02412  90.3360 275.5904 0006691 205.7593 154.2925  8.59079194378308
ISIS 1                  
1 03669U 69009A   26027.38272773  .00000650  00000+0  45529-3 0  9992
2 03669  88.4542 159.8096 1707886 172.5100 190.5418 11.30391332343866
SECOR 13 (EGRS 13)      
1 03891U 69037B   26027.38861507 -.00000025  00000+0  31286-4 0  9992
2 03891  99.6712 264.8261 0038812 236.4880 298.6068 13.42970200782856
ATS 5                   
1 04068U 69069A   26027.46155685 -.00000113  00000+0  00000+0 0  9999
2 04068   0.3527 226.6810 0006491  51.6206 190.8817  0.99496812 44923
OPS 7613 (P/L 4)        
1 04237U 69082E   26027.45099189  .00000092  00000+0  10559-3 0  9996
2 04237  70.0143  44.5340 0022749 308.2753 158.0908 13.95970231866668
OPS 7613 (P/L 1)        
1 04256U 69082B   26027.04517612  .00000185  00000+0  16386-3 0  9995
2 04256  70.0086 268.2148 0022283 251.9983 107.8696 13.99151585870723
SHINSEI (MS-F2)         
1 05485U 71080A   26027.19051078  .00000023  00000+0 -12816-4 0  9993
2 05485  32.0575 353.2201 0639968 186.8282 172.3221 12.74248716531265
PROSPERO (BLACK ARROW)  
1 05580U 71093A   26027.50881360  .00002856  00000+0  61726-3 0  9991
2 05580  82.0371  54.2818 0501162 270.4478  83.9305 14.01288820728825
OPS 7898 (P/L 2)        
1 05680U 71110C   26027.16374747  .00000020  00000+0  73433-4 0  9990
2 05680  69.9903 293.9507 0008880 327.9822  32.0731 13.74744802328839
NOAA 2 (ITOS-D)         
1 06235U 72082A   26026.85095341 -.00000022  00000+0  15698-3 0  9992
2 06235 102.0184  43.8238 0004271  82.5459  90.1919 12.53210265437245
OSCAR 7 (AO-7)          
1 07530U 74089B   26026.97315935 -.00000020  00000+0  16314-3 0  9991
2 07530 101.9969  38.7166 0012329  41.7625 346.0721 12.53695360342827
TIROS N                 
1 11060U 78096A   26027.07804082  .00000295  00000+0  16041-3 0  9994
2 11060  98.4674  54.4380 0009354 293.8682  66.1514 14.19318011658732
PHASE 3B (AO-10)        
1 14129U 83058B   26022.68119239  .00000042  00000+0  00000+0 0  9996
2 14129  25.9805 244.1511 6059500  75.1316 341.4004  2.05872829292499
HILAT                   
1 14154U 83063A   26027.27342846  .00000802  00000+0  25479-3 0  9997
2 14154  82.0251 292.0317 0039657 359.6281 122.7341 14.38596653227329
UOSAT 2 (UO-11)         
1 14781U 84021B   26027.45190337  .00003291  00000+0  34396-3 0  9997
2 14781  97.7873 354.7926 0006164 295.7825  64.2756 14.90340301236168
NOAA 9                  
1 15427U 84123A   26027.49408465  .00000236  00000+0  14061-3 0  9999
2 15427  99.1130  50.7801 0015104  31.8261  97.6022 14.17023452123491
GEOSAT                  
1 15595U 85021A   26027.26124901  .00000519  00000+0  20820-3 0  9992
2 15595 108.0434 148.1322 0002453 272.2861  87.8000 14.39876271142480
EUTELSAT 1-F4 (ECS 4)   
1 18351U 87078B   26027.00583333 -.00000037  00000+0  00000+0 0  9999
2 18351  13.9283 343.1122 0010542  18.7517 162.6144  0.98688564125368
PACSAT (AO-16)          
1 20439U 90005D   26027.35020721  .00000277  00000+0  11624-3 0  9991
2 20439  98.8703  59.6088 0009581 286.5814  85.5598 14.33883785881757
LUSAT (LO-19)           
1 20442U 90005G   26027.03756135  .00000276  00000+0  11563-3 0  9996
2 20442  98.8952  44.8843 0010544 259.1389 100.8608 14.34068758882161
IRS-1B                  
1 21688U 91061A   26027.48371251 -.00000046  00000+0  48201-6 0  9991
2 21688  99.4124  31.9173 0024783  27.0946  96.1676 13.97852219648833
COSMOS 2197             
1 22034U 92042A   26027.29718590  .00000029  00000+0  98544-4 0  9990
2 22034  82.5982 318.9779 0011659 233.5195 246.5360 12.64246067547483
PEGASUS R/B             
1 22491U 93009C   26026.69893705  .00001859  00000+0  35135-3 0  9994
2 22491  24.9776 260.2498 0044218  21.4032 338.8318 14.57718809748965
EYESAT A (AO-27)        
1 22825U 93061C   26027.17120620  .00000230  00000+0  10481-3 0  9995
2 22825  98.7073  94.5311 0008982 148.4609 211.7114 14.30897825686832
ITAMSAT (IO-26)         
1 22826U 93061D   26027.47206528  .00000273  00000+0  11998-3 0  9992
2 22826  98.7021  94.7362 0009733 132.7779 227.4224 14.31320820687185
RADIO ROSTO (RS15)      
1 23439U 94085A   26027.45510385 -.00000051  00000+0 -23165-3 0  9992
2 23439  64.8144 170.8177 0151242  29.8830 331.0625 11.27583402280032
JAS-2 (FO-29)           
1 24278U 96046B   26027.46602495  .00000012  00000+0  44923-4 0  9999
2 24278  98.5432 255.4515 0350908 101.4986 262.5770 13.53265854454135
FORTE                   
1 24920U 97047A   26027.29265350  .00000439  00000+0  20040-3 0  9997
2 24920  69.9553 332.2444 0019122 114.1453 246.1671 14.27873394478578
NOAA 15                 
1 25338U 98030A   26027.47288351  .00000274  00000+0  12998-3 0  9990
2 25338  98.5193  51.8268 0010997  44.8199 315.3868 14.27094373441226
TECHSAT 1B (GO-32)      
1 25397U 98043D   26027.50661095  .00000189  00000+0  10190-3 0  9990
2 25397  98.9971  16.7871 0000289 238.3579 121.7570 14.24393396431305
ISS (ZARYA)             
1 25544U 98067A   26027.14328213  .00011252  00000+0  21756-3 0  9995
2 25544  51.6321 277.7306 0011150  34.3982 325.7726 15.48216781549899
ORSTED                  
1 25635U 99008B   26027.43393425  .00001554  00000+0  35488-3 0  9992
2 25635  96.4776 326.9525 0130573 278.1826  80.4581 14.51613834421545
LANDSAT 7               
1 25682U 99020A   26027.51964664  .00000940  00000+0  18881-3 0  9992
2 25682  97.8596  37.6081 0001466 102.3721  49.1525 14.63765663425269
ORBCOMM FM36            
1 25984U 99065E   26026.62413551  .00001918  00000+0  66349-3 0  9999
2 25984  45.0375 111.4652 0002795 303.9838  56.0745 14.38852031366592
DMSP 5D-3 F15 (USA 147) 
1 25991U 99067A   26027.48742310  .00000283  00000+0  16208-3 0  9995
2 25991  99.0162  64.1613 0010600  47.6710  58.7567 14.17500848350710
OPAL (OO-38)            
1 26063U 00004C   26027.48236263  .00000335  00000+0  12939-3 0  9999
2 26063 100.1904 298.4005 0036506  73.0779 287.4400 14.37901964363062
IMAGE                   
1 26113U 00017A   26025.97739857 -.00000225  00000+0 -13154-1 0  9996
2 26113  94.0889 313.4052 7540263 304.1281   5.9623  1.68664772159105
CLUSTER II-FM7 (SAMBA)  
1 26410U 00041A   26023.07807862  .00004677  00000+0  00000+0 0  9991
2 26410 148.3592  29.7174 8835954 245.6118 359.2301  0.44786329 19664
CLUSTER II-FM8 (TANGO)  
1 26464U 00045B   26019.78457485  .00005071  00000+0  00000+0 0  9998
2 26464 148.5838  29.9991 8833034 245.7591 359.3805  0.44425532 19644
MEGSAT-1                
1 26546U 00057B   26027.47593682  .00006572  00000+0  47381-3 0  9991
2 26546  64.5499 159.6976 0035806 298.4652  61.2859 15.04452774376481
PHASE 3D (AO-40)        
1 26609U 00072B   26026.12654691 -.00000338  00000+0  00000+0 0  9995
2 26609   9.6420  12.6923 7946661 133.8406 327.6364  1.25587717115723
ODIN                    
1 26702U 01007A   26027.32921219  .00050981  00000+0  76351-3 0  9998
2 26702  97.4162  61.7832 0002270 343.0432  17.0745 15.54809756367409
OMNI-M1                 
1 26857U 01026A   26026.30652651 -.00000007  00000+0  00000+0 0  9997
2 26857  44.8915 277.9498 0017877  16.5425 343.5698  3.92402567200008
PCSAT (NO-44)           
1 26931U 01043C   26027.34796411  .00000289  00000+0  13887-3 0  9999
2 26931  67.0490 248.5311 0007108 266.9438  93.0850 14.31887460270283
PROBA-1                 
1 26958U 01049B   26027.52120455  .00003950  00000+0  26134-3 0  9990
2 26958  97.9622  31.2010 0054133 237.4396 122.1595 15.06787355322430
SPOT 5                  
1 27421U 02021A   26027.02649952  .00000781  00000+0  17401-3 0  9996
2 27421  98.0063  72.0146 0129696 356.0739   3.9430 14.54610426242325
FENGYUN 1D              
1 27431U 02024B   26027.16950714  .00000030  00000+0  42041-4 0  9992
2 27431  98.9746  78.0079 0014437 280.0121  79.9419 14.10201129219604
SAUDISAT 1C (SO-50)     
1 27607U 02058C   26027.20418053  .00002678  00000+0  33458-3 0  9995
2 27607  64.5516 205.0558 0073974 288.1574  71.1487 14.82605442243554
CORIOLIS                
1 27640U 03001A   26027.47640662  .00000267  00000+0  14634-3 0  9990
2 27640  98.7151  36.4986 0012965 257.4799 102.4927 14.19894831194258
CUTE-1 (CO-55)          
1 27844U 03031E   26026.97441760  .00000592  00000+0  27561-3 0  9995
2 27844  98.6771  37.2964 0008724 231.9633 128.0759 14.24227680171573
CUBESAT XI-IV (CO-57)   
1 27848U 03031J   26025.97897264  .00000556  00000+0  26357-3 0  9994
2 27848  98.6800  36.1404 0008454 255.2958 104.7284 14.23527635171145
